IRIDIUM 155             
1 43573U 18061E   21054.96487978  .00000080  00000-0  21354-4 0  9995
2 43573  86.4008 147.1708 0001983 111.5163 248.6244 14.34219966135405
IRIDIUM 154             
1 43574U 18061F   21055.50400096  .00000080  00000-0  21610-4 0  9998
2 43574  86.4012 146.9871 0002151  90.0530 270.0912 14.34220555135537
IRIDIUM 163             
1 43575U 18061G   21055.48497490  .00000078  00000-0  20795-4 0  9990
2 43575  86.4009 146.9693 0002747  95.9081 264.2427 14.34220604135500
IRIDIUM 156             
1 43576U 18061H   21055.52938110  .00000079  00000-0  21174-4 0  9998
2 43576  86.4010 146.9558 0002446 104.2380 255.9087 14.34219896135505
IRIDIUM 164             
1 43577U 18061J   21055.51035700  .00000082  00000-0  22141-4 0  9990
2 43577  86.4011 146.9746 0002282  91.7107 268.4350 14.34219829135543
IRIDIUM 159             
1 43578U 18061K   21055.47864521  .00000076  00000-0  20015-4 0  9998
2 43578  86.4009 146.9653 0002188  92.4033 267.7413 14.34217870135501
IRIDIUM 180             
1 43922U 19002A   21055.33860650  .00000111  00000-0  32448-4 0  9994
2 43922  86.3924  83.8606 0002827  71.7100 288.4403 14.34218320111099
IRIDIUM 176             
1 43923U 19002B   21055.51610175  .00000169  00000-0  22964-4 0  9995
2 43923  86.6058  83.8181 0002349  87.3108 272.8378 14.72255059114014
IRIDIUM 168             
1 43924U 19002C   21055.33225836  .00000102  00000-0  29449-4 0  9994
2 43924  86.3926  83.8857 0002236  84.3637 275.7813 14.34219819111076
IRIDIUM 173             
1 43925U 19002D   21055.04049583  .00000113  00000-0  33219-4 0  9998
2 43925  86.3922  83.9755 0002300  87.0638 273.0821 14.34220103111016
IRIDIUM 169             
1 43926U 19002E   21055.45470579  .00000093  00000-0  23741-4 0  9993
2 43926  86.4212 115.4184 0003318 222.4855 137.6087 14.38605591111496
IRIDIUM 172             
1 43927U 19002F   21055.31323634  .00000111  00000-0  32672-4 0  9992
2 43927  86.3923  83.8633 0002319  84.6610 275.4850 14.34217549111069
IRIDIUM 175             
1 43928U 19002G   21055.03413173  .00000168  00000-0  22793-4 0  9995
2 43928  86.6043  83.8621 0003077  96.0254 264.1314 14.72256219113933
IRIDIUM 171             
1 43929U 19002H   21055.08487673  .00000108  00000-0  31396-4 0  9990
2 43929  86.3932  84.0499 0002216  84.8921 275.2528 14.34220865111028
IRIDIUM 170             
1 43930U 19002J   21055.31840282  .00000164  00000-0  22052-4 0  9998
2 43930  86.6058  83.9075 0002648  89.5173 270.6348 14.72255022113992
IRIDIUM 167             
1 43931U 19002K   21055.35761795  .00000075  00000-0  19767-4 0  9994
2 43931  86.3922  83.8499 0002565  74.4638 285.6841 14.34215968111069
